satname,norad_id,inclination_deg,eccentricity,mean_motion_rev_per_day,perigee_km,apogee_km,l1,l2
STARLINK-1567,46038,53.0955,0.0001168,15.35907205,457.42868572894804,459.0256603997768,1 46038U 20055M   26077.91667824  .01102742  00000+0  28419-1 0  9999,2 46038  53.0955  83.6698 0001168  96.3564  88.1279 15.35907205  5736
STARLINK-1569,46039,53.1531,0.0001977,15.28970321,477.53349572256775,480.24476385428534,1 46039U 20055N   26077.91667824  .01038434  00000+0  33408-1 0  9990,2 46039  53.1531  83.8411 0001977  76.4412   4.8735 15.28970321  5735
STARLINK-1582,46043,53.1631,0.0001206,15.30158873,474.51134090923097,476.1643990478706,1 46043U 20055S   26077.91667824  .00054951  00000+0  18561-2 0  9990,2 46043  53.1631  83.8355 0001206  79.5323 324.9816 15.30158873  5782
STARLINK-1591,46045,53.1471,0.0001126,15.28074008,480.79785386289313,482.3426599371478,1 46045U 20055U   26077.91667824  .00123967  00000+0  44065-2 0  9994,2 46045  53.1471  83.8176 0001126 111.0977 163.2480 15.28074008  5780
STARLINK-1524,46047,53.1593,0.000148,15.30200239,474.2000598078366,476.22865180915596,1 46047U 20055W   26077.40662492  .00001409  00000+0  59692-4 0  9996,2 46047  53.1593  73.3498 0001480  95.1866 264.9304 15.30200239310402
STARLINK-1527,46048,53.159,0.0001314,15.30199229,474.3168407229041,476.1179022517308,1 46048U 20055X   26077.28232860  .00008744  00000+0  30699-3 0  9999,2 46048  53.1590  74.0259 0001314  77.5509 282.5639 15.30199229310365
STARLINK-1540,46051,53.1601,0.0001243,15.30188154,474.39856360949943,476.10231572700013,1 46051U 20055AA  26077.69737644  .00001765  00000+0  71733-4 0  9999,2 46051  53.1601  72.0020 0001243 101.2707 258.8433 15.30188154310466
STARLINK-1541,46052,53.1603,0.0001403,15.30193936,474.27164765445195,476.1947033256947,1 46052U 20055AB  26077.68685149  .00005013  00000+0  18129-3 0  9990,2 46052  53.1603  72.0938 0001403  94.6342 265.4819 15.30193936310427
STARLINK-1543,46053,53.1597,0.0001449,15.30202511,474.2145224076994,476.20062166467505,1 46053U 20055AC  26077.69316846  .00005484  00000+0  19714-3 0  9990,2 46053  53.1597  72.0913 0001449  96.7801 263.3365 15.30202511310452
STARLINK-1548,46054,53.1629,0.0001372,15.30180607,474.3326861848218,476.21326188169587,1 46054U 20055AD  26077.70056071  .00001612  00000+0  66578-4 0  9994,2 46054  53.1629  72.0549 0001372 105.1687 254.9465 15.30180607310454
STARLINK-1554,46055,53.1594,0.0001015,15.301931,474.54005432683425,475.93128897917904,1 46055U 20055AE  26077.69845278  .00001959  00000+0  78254-4 0  9996,2 46055  53.1594  72.1907 0001015 101.4281 258.6834 15.30193100310451
STARLINK-1564,46058,53.1602,0.0001325,15.30192488,474.3294268679201,476.14557111015256,1 46058U 20055AH  26077.69640235  .00002434  00000+0  94286-4 0  9997,2 46058  53.1602  72.5335 0001325  83.1492 276.9660 15.30192488310444
STARLINK-1570,46059,53.1601,0.0001214,15.30187026,474.4218060743942,476.0858093625093,1 46059U 20055AJ  26077.39925147  .00006374  00000+0  22725-3 0  9998,2 46059  53.1601  73.4551 0001214  89.8131 270.3009 15.30187026310362
STARLINK-1572,46060,53.1571,0.0001318,15.30194253,474.32895491474574,476.1355030435043,1 46060U 20055AK  26077.91667824  .00050946  00000+0  17208-2 0  9996,2 46060  53.1571  71.2576 0001318 101.1948 137.7627 15.30194253  5871
STARLINK-1573,46061,53.1604,0.0001374,15.30193999,474.2913343459286,476.1746404184614,1 46061U 20055AL  26077.71002047  .00003173  00000+0  11922-3 0  9993,2 46061  53.1604  71.9638 0001374  82.4528 277.6629 15.30193999310457
STARLINK-1577,46063,53.1583,0.0001188,15.30199123,474.4035094475612,476.0318665214272,1 46063U 20055AN  26077.27914972 -.00000648  00000+0 -97609-5 0  9999,2 46063  53.1583  73.9359 0001188  78.1542 281.9591 15.30199123310381
STARLINK-1583,46064,53.1602,0.0001565,15.30184044,474.19015451836094,476.3352686280823,1 46064U 20055AP  26077.83746754 -.00017153  00000+0 -56860-3 0  9994,2 46064  53.1602  71.3751 0001565  86.5736 273.5444 15.30184044310468
STARLINK-1525,46066,53.055,0.0001998,15.23863897,492.82595909742486,495.57214458374074,1 46066U 20055AR  26077.91667824  .01067194  00000+0  40475-1 0  9997,2 46066  53.0550  54.2288 0001998  84.4410 354.0331 15.23863897  5780
STARLINK-1536,46070,53.0562,0.0001361,15.06383617,546.3192231561779,548.2043167013517,1 46070U 20055AV  26077.10980966  .00001384  00000+0  11180-3 0  9999,2 46070  53.0562  58.8196 0001361  91.3227 268.7918 15.06383617310580
STARLINK-1542,46073,53.056,0.0001412,15.06401107,546.230306407474,548.1860238821109,1 46073U 20055AY  26077.63321734 -.00000875  00000+0 -39849-4 0  9991,2 46073  53.0560  56.4693 0001412  89.1526 270.9625 15.06401107310654
STARLINK-1549,46074,53.0559,0.0001292,15.06396944,546.3261679101661,548.1156803977674,1 46074U 20055AZ  26077.15404275  .00000467  00000+0  50220-4 0  9992,2 46074  53.0559  58.6203 0001292  95.3311 264.7825 15.06396944310577
STARLINK-1551,46075,53.0568,0.0001308,15.06376681,546.3771832969969,548.1888731763838,1 46075U 20055BA  26077.64428325  .00002333  00000+0  17556-3 0  9997,2 46075  53.0568  56.4204 0001308  89.2896 270.8243 15.06376681310650
STARLINK-1552,46076,53.0557,0.0001441,15.0639389,546.2323388459081,548.2282296972353,1 46076U 20055BB  26077.67007802  .00000582  00000+0  57988-4 0  9992,2 46076  53.0557  56.3040 0001441  89.2494 270.8660 15.06393890310641
STARLINK-1559,46077,53.0258,0.0004503,15.30538383,471.11929536668504,477.2905144862616,1 46077U 20055BC  26077.57448843  .00049944  00000+0  16691-2 0  9995,2 46077  53.0258  32.5552 0004503  72.9347 287.2145 15.30538383310940
STARLINK-1566,46079,53.0551,0.0001354,15.0640761,546.2505454457569,548.1259235192556,1 46079U 20055BE  26077.15772637  .00001370  00000+0  11083-3 0  9994,2 46079  53.0551  58.6031 0001354  97.1803 262.9340 15.06407610310584
STARLINK-1568,46080,53.0631,0.0006219,15.4723673,420.5830473519982,429.04455756009247,1 46080U 20055BF  26077.73267354  .00027756  00000+0  54272-3 0  9998,2 46080  53.0631 349.7949 0006219 144.2791 215.8633 15.47236730311594
STARLINK-1578,46082,53.0552,0.0001088,15.06398,546.4642090669886,547.9711662470227,1 46082U 20055BH  26077.63690354  .00000132  00000+0  27762-4 0  9993,2 46082  53.0552  56.4530 0001088  80.8023 279.3089 15.06398000310658
STARLINK-1579,46083,53.0556,0.0001314,15.06396477,546.3123632276101,548.132347666221,1 46083U 20055BJ  26077.67280923  .00001050  00000+0  89357-4 0  9993,2 46083  53.0556  56.2822 0001314  93.1842 266.9297 15.06396477310652
